[
  {
    "missing_official": 8310,
    "missing_osm": 7210,
    "class": "10.13B",
    "level": 3,
    "title": "Charcuterie",
    "match": [
      {
        "shop": "butcher"
      },
      {
        "shop": "deli"
      }
    ],
    "generate": {
      "shop": "butcher;deli",
      "fixme": "select a shop type. Add butcher=pork for a butcher selling mainly pork"
    }
  },
  {
    "missing_official": 8310,
    "missing_osm": 7210,
    "class": "10.71B",
    "level": 3,
    "title": "Cuisson de produits de boulangerie",
    "match": [
      {
        "shop": "bakery"
      },
      {
        "shop": "pastry"
      }
    ],
    "generate": {
      "shop": "bakery"
    }
  },
  {
    "missing_official": 8310,
    "missing_osm": 7210,
    "class": "10.71C",
    "level": 3,
    "title": "Boulangerie et boulangerie-pâtisserie",
    "match": [
      {
        "shop": "bakery"
      },
      {
        "shop": "pastry"
      }
    ],
    "generate": {
      "shop": "bakery"
    }
  },
  {
    "missing_official": 8310,
    "missing_osm": 7210,
    "class": "10.71D",
    "level": 3,
    "title": "Pâtisserie",
    "match": [
      {
        "shop": "pastry"
      }
    ],
    "generate": {
      "shop": "pastry"
    }
  },
  {
    "missing_official": 8310,
    "missing_osm": 7210,
    "class": "45.11Z",
    "level": 3,
    "title": "Commerce de voitures et de véhicules automobiles légers",
    "trancheEffectifs": 1,
    "match": [
      {
        "shop": "car"
      }
    ],
    "generate": {
      "shop": "car"
    }
  },
  {
    "missing_official": 8310,
    "missing_osm": 7210,
    "class": "45.19Z",
    "level": 3,
    "title": "Commerce d'autres véhicules automobiles",
    "trancheEffectifs": 1,
    "match": [
      {
        "shop": "car"
      }
    ],
    "generate": {
      "shop": "car"
    }
  },
  {
    "missing_official": 8310,
    "missing_osm": 7210,
    "class": "45.20A",
    "level": 3,
    "title": "Entretien et réparation de véhicules automobiles",
    "match": [
      {
        "shop": "car_repair"
      }
    ],
    "generate": {
      "shop": "car_repair"
    }
  },
  {
    "missing_official": 8310,
    "missing_osm": 7210,
    "class": "45.32Z",
    "level": 3,
    "title": "Commerce de détail d'équipements automobiles",
    "match": [
      {
        "shop": "car_parts"
      }
    ],
    "generate": {
      "shop": "car_parts"
    }
  },
  {
    "missing_official": 8310,
    "missing_osm": 7210,
    "class": "45.40Z",
    "level": 3,
    "title": "Commerce et réparation de motocycles",
    "match": [
      {
        "shop": "motorcycle"
      },
      {
        "shop": "motorcycle_repair"
      }
    ],
    "generate": {
      "shop": "motorcycle;motorcycle_repair",
      "fixme": "select a shop type"
    }
  },
  {
    "missing_official": 8310,
    "missing_osm": 7210,
    "class": "47.11A",
    "level": 3,
    "title": "Commerce de détail de produits surgelés",
    "match": [
      {
        "shop": "frozen_food"
      }
    ],
    "generate": {
      "shop": "frozen_food"
    }
  },
  {
    "missing_official": 8310,
    "missing_osm": 7210,
    "class": "47.11B",
    "level": 3,
    "title": "Commerce de détail en magasin non spécialisé à prédominance alimentaire",
    "match": [
      {
        "shop": "convenience"
      },
      {
        "shop": "farm"
      },
      {
        "shop": "supermarket"
      },
      {
        "shop": "greengrocer"
      },
      {
        "shop": "deli"
      }
    ],
    "generate": {
      "shop": "convenience;supermarket;greengrocer;farm;deli",
      "fixme": "select a shop type"
    }
  },
  {
    "missing_official": 8310,
    "missing_osm": 7210,
    "class": "47.11C",
    "level": 3,
    "title": "Supérettes",
    "match": [
      {
        "shop": "convenience"
      },
      {
        "shop": "supermarket"
      },
      {
        "shop": "farm"
      },
      {
        "shop": "greengrocer"
      },
      {
        "shop": "deli"
      }
    ],
    "generate": {
      "shop": "convenience;supermarket;farm;greengrocer;deli"
    }
  },
  {
    "missing_official": 8310,
    "missing_osm": 7210,
    "class": "47.11D",
    "level": 3,
    "title": "Supermarchés",
    "match": [
      {
        "shop": "supermarket"
      }
    ],
    "generate": {
      "shop": "supermarket"
    }
  },
  {
    "missing_official": 8310,
    "missing_osm": 7210,
    "class": "47.11F",
    "level": 3,
    "title": "Hypermarchés",
    "match": [
      {
        "shop": "supermarket"
      }
    ],
    "generate": {
      "shop": "supermarket"
    }
  },
  {
    "missing_official": 8310,
    "missing_osm": 7210,
    "class": "47.19A",
    "level": 3,
    "title": "Grands magasins",
    "match": [
      {
        "shop": "department_store"
      }
    ],
    "generate": {
      "shop": "department_store"
    }
  },
  {
    "missing_official": 8310,
    "missing_osm": 7210,
    "class": "47.21Z",
    "level": 3,
    "title": "Commerce de détail de fruits et légumes en magasin spécialisé",
    "match": [
      {
        "shop": "grocery"
      },
      {
        "shop": "farm"
      },
      {
        "shop": "greengrocer"
      },
      {
        "shop": "deli"
      }
    ],
    "generate": {
      "shop": "grocery;farm;greengrocer;deli",
      "fixme": "select a shop type"
    }
  },
  {
    "missing_official": 8310,
    "missing_osm": 7210,
    "class": "47.22Z",
    "level": 3,
    "title": "Commerce de détail de viandes et de produits à base de viande en magasin spécialisé",
    "match": [
      {
        "shop": "butcher"
      }
    ],
    "generate": {
      "shop": "butcher"
    }
  },
  {
    "missing_official": 8310,
    "missing_osm": 7210,
    "class": "47.23Z",
    "level": 3,
    "title": "Commerce de détail de poissons, crustacés et mollusques en magasin spécialisé",
    "match": [
      {
        "shop": "seafood"
      }
    ],
    "generate": {
      "shop": "seafood"
    }
  },
  {
    "missing_official": 8310,
    "missing_osm": 7210,
    "class": "47.24Z",
    "level": 3,
    "title": "Commerce de détail de pain, pâtisserie et confiserie en magasin spécialisé",
    "match": [
      {
        "shop": "bakery"
      },
      {
        "shop": "pastry"
      },
      {
        "shop": "chocolate"
      },
      {
        "shop": "confectionery"
      }
    ],
    "generate": {
      "shop": "bakery;pastry;chocolate;confectionery",
      "fixme": "select a shop type"
    }
  },
  {
    "missing_official": 8310,
    "missing_osm": 7210,
    "class": "47.25Z",
    "level": 3,
    "title": "Commerce de détail de boissons en magasin spécialisé",
    "match": [
      {
        "shop": "beverages"
      },
      {
        "shop": "alcohol"
      }
    ],
    "generate": {
      "shop": "beverages;alcohol",
      "fixme": "select a shop type"
    }
  },
  {
    "missing_official": 8310,
    "missing_osm": 7210,
    "class": "47.26Z",
    "level": 3,
    "title": "Commerce de détail de produits à base de tabac en magasin spécialisé",
    "match": [
      {
        "shop": "tobacco"
      },
      {
        "shop": "newsagent"
      }
    ],
    "generate": {
      "shop": "tobacco"
    }
  },
  {
    "missing_official": 8310,
    "missing_osm": 7210,
    "class": "47.30Z",
    "level": 3,
    "title": "Commerce de détail de carburants en magasin spécialisé",
    "match": [
      {
        "amenity": "fuel"
      }
    ],
    "generate": {
      "amenity": "fuel"
    }
  },
  {
    "missing_official": 8310,
    "missing_osm": 7210,
    "class": "47.41Z",
    "level": 3,
    "title": "Commerce de détail d'ordinateurs, d'unités périphériques et de logiciels en magasin spécialisé",
    "match": [
      {
        "shop": "computer"
      },
      {
        "shop": "video_games"
      },
      {
        "shop": "mobile_phone"
      }
    ],
    "generate": {
      "shop": "computer;video_games",
      "fixme": "select a shop type"
    }
  },
  {
    "missing_official": 8310,
    "missing_osm": 7210,
    "class": "47.42Z",
    "level": 3,
    "title": "Commerce de détail de matériels de télécommunication en magasin spécialisé",
    "match": [
      {
        "shop": "mobile_phone"
      }
    ],
    "generate": {
      "shop": "mobile_phone"
    }
  },
  {
    "missing_official": 8310,
    "missing_osm": 7210,
    "class": "47.43Z",
    "level": 3,
    "title": "Commerce de détail de matériels audio et vidéo en magasin spécialisé",
    "match": [
      {
        "shop": "hifi"
      }
    ],
    "generate": {
      "shop": "hifi"
    }
  },
  {
    "missing_official": 8310,
    "missing_osm": 7210,
    "class": "47.51Z",
    "level": 3,
    "title": "Commerce de détail de textiles en magasin spécialisé",
    "match": [
      {
        "shop": "fabric"
      },
      {
        "shop": "wool"
      },
      {
        "shop": "household_linen"
      },
      {
        "shop": "underwear"
      },
      {
        "shop": "sewing"
      }
    ],
    "generate": {
      "shop": "fabric;wool;household_linen;underwear;sewing",
      "fixme": "select a shop type"
    }
  },
  {
    "missing_official": 8310,
    "missing_osm": 7210,
    "class": "47.52A",
    "level": 3,
    "title": "Commerce de détail de quincaillerie, peintures et verres en petites surfaces (moins de 400 m²)",
    "match": [
      {
        "shop": "hardware"
      },
      {
        "shop": "doityourself"
      }
    ],
    "generate": {
      "shop": "hardware;doityourself",
      "fixme": "select a shop type"
    }
  },
  {
    "missing_official": 8310,
    "missing_osm": 7210,
    "class": "47.52B",
    "level": 3,
    "title": "Commerce de détail de quincaillerie, peintures et verres en grandes surfaces (400 m² et plus)",
    "match": [
      {
        "shop": "hardware"
      },
      {
        "shop": "doityourself"
      }
    ],
    "generate": {
      "shop": "hardware;doityourself",
      "fixme": "select a shop type"
    }
  },
  {
    "missing_official": 8310,
    "missing_osm": 7210,
    "class": "47.53Z",
    "level": 3,
    "title": "Commerce de détail de tapis, moquettes et revêtements de murs et de sols en magasin spécialisé",
    "match": [
      {
        "shop": "carpet"
      }
    ],
    "generate": {
      "shop": "carpet"
    }
  },
  {
    "missing_official": 8310,
    "missing_osm": 7210,
    "class": "47.59A",
    "level": 3,
    "title": "Commerce de détail de meubles",
    "match": [
      {
        "shop": "furniture"
      },
      {
        "shop": "bed"
      },
      {
        "shop": "kitchen"
      }
    ],
    "generate": {
      "shop": "furniture;kitchen;bed",
      "fixme": "select a shop type"
    }
  },
  {
    "missing_official": 8310,
    "missing_osm": 7210,
    "class": "47.61Z",
    "level": 3,
    "title": "Commerce de détail de livres en magasin spécialisé",
    "match": [
      {
        "shop": "books"
      }
    ],
    "generate": {
      "shop": "books"
    }
  },
  {
    "missing_official": 8310,
    "missing_osm": 7210,
    "class": "47.62Z",
    "level": 3,
    "title": "Commerce de détail de journaux et papeterie en magasin spécialisé",
    "match": [
      {
        "shop": "newsagent"
      },
      {
        "shop": "stationery"
      }
    ],
    "generate": {
      "shop": "newsagent;stationery",
      "fixme": "select a shop type"
    }
  },
  {
    "missing_official": 8310,
    "missing_osm": 7210,
    "class": "47.63Z",
    "level": 3,
    "title": "Commerce de détail d'enregistrements musicaux et vidéo en magasin spécialisé",
    "match": [
      {
        "shop": "music"
      },
      {
        "shop": "video"
      }
    ],
    "generate": {
      "shop": "music;video",
      "fixme": "select a shop type"
    }
  },
  {
    "missing_official": 8310,
    "missing_osm": 7210,
    "class": "47.64Z",
    "level": 3,
    "title": "Commerce de détail d'articles de sport en magasin spécialisé",
    "match": [
      {
        "shop": "sports"
      },
      {
        "shop": "outdoor"
      },
      {
        "shop": "bicycle"
      }
    ],
    "generate": {
      "shop": "sports;outdoor;bicycle",
      "fixme": "select a shop type"
    }
  },
  {
    "missing_official": 8310,
    "missing_osm": 7210,
    "class": "47.65Z",
    "level": 3,
    "title": "Commerce de détail de jeux et jouets en magasin spécialisé",
    "match": [
      {
        "shop": "toys"
      },
      {
        "shop": "games"
      }
    ],
    "generate": {
      "shop": "toys;games",
      "fixme": "select a shop type"
    }
  },
  {
    "missing_official": 8310,
    "missing_osm": 7210,
    "class": "47.71Z",
    "level": 3,
    "title": "Commerce de détail d'habillement en magasin spécialisé",
    "match": [
      {
        "shop": "clothes"
      }
    ],
    "generate": {
      "shop": "clothes"
    }
  },
  {
    "missing_official": 8310,
    "missing_osm": 7210,
    "class": "47.72A",
    "level": 3,
    "title": "Commerce de détail de la chaussure",
    "match": [
      {
        "shop": "shoes"
      }
    ],
    "generate": {
      "shop": "shoes"
    }
  },
  {
    "missing_official": 8310,
    "missing_osm": 7210,
    "class": "47.72B",
    "level": 3,
    "title": "Commerce de détail de maroquinerie et d'articles de voyage",
    "match": [
      {
        "shop": "bag"
      },
      {
        "shop": "leather"
      }
    ],
    "generate": {
      "shop": "bag;leather",
      "fixme": "select a shop type"
    }
  },
  {
    "missing_official": 8310,
    "missing_osm": 7210,
    "class": "47.73Z",
    "level": 3,
    "title": "Commerce de détail de produits pharmaceutiques en magasin spécialisé",
    "match": [
      {
        "amenity": "pharmacy"
      }
    ],
    "generate": {
      "amenity": "pharmacy"
    }
  },
  {
    "missing_official": 8310,
    "missing_osm": 7210,
    "class": "47.74Z",
    "level": 3,
    "title": "Commerce de détail d'articles médicaux et orthopédiques en magasin spécialisé",
    "match": [
      {
        "shop": "hearing_aids"
      },
      {
        "shop": "medical_supply"
      }
    ],
    "generate": {
      "amenity": "hearing_aids;medical_supply",
      "fixme": "select a shop type"
    }
  },
  {
    "missing_official": 8310,
    "missing_osm": 7210,
    "class": "47.75Z",
    "level": 3,
    "title": "Commerce de détail de parfumerie et de produits de beauté en magasin spécialisé",
    "match": [
      {
        "shop": "perfumery"
      },
      {
        "shop": "cosmetics"
      },
      {
        "shop": "chemist"
      },
      {
        "shop": "beauty"
      }
    ],
    "generate": {
      "shop": "perfumery;cosmetics;chemist;beauty",
      "fixme": "select a shop type"
    }
  },
  {
    "missing_official": 8310,
    "missing_osm": 7210,
    "class": "47.76Z",
    "level": 3,
    "title": "Commerce de détail de fleurs, plantes, graines, engrais, animaux de compagnie et aliments pour ces animaux en magasin spécialisé",
    "match": [
      {
        "shop": "florist"
      },
      {
        "shop": "pet"
      },
      {
        "shop": "garden_centre"
      }
    ],
    "generate": {
      "shop": "florist;pet;garden_centre",
      "fixme": "select a shop type"
    }
  },
  {
    "missing_official": 8310,
    "missing_osm": 7210,
    "class": "47.77Z",
    "level": 3,
    "title": "Commerce de détail d'articles d'horlogerie et de bijouterie en magasin spécialisé",
    "match": [
      {
        "shop": "watches"
      },
      {
        "shop": "jewelry"
      }
    ],
    "generate": {
      "shop": "watches;jewelry",
      "fixme": "select a shop type"
    }
  },
  {
    "missing_official": 8310,
    "missing_osm": 7210,
    "class": "47.78A",
    "level": 3,
    "title": "Commerces de détail d'optique",
    "match": [
      {
        "shop": "optician"
      }
    ],
    "generate": {
      "shop": "optician"
    }
  },
  {
    "missing_official": 8310,
    "missing_osm": 7210,
    "class": "47.79Z",
    "level": 3,
    "title": "Commerce de détail de biens d'occasion en magasin",
    "match": [
      {
        "shop": "second_hand"
      },
      {
        "shop": "antiques"
      },
      {
        "books": "antiquarian"
      },
      {
        "second_hand": "yes"
      }
    ],
    "generate": {
      "shop": "second_hand;antiques",
      "fixme": "select a shop type"
    }
  },
  {
    "missing_official": 8310,
    "missing_osm": 7210,
    "class": "55.10Z",
    "level": 3,
    "title": "Hôtels et hébergement similaire",
    "trancheEffectifs": 1,
    "match": [
      {
        "tourism": "hotel"
      }
    ],
    "generate": {
      "tourism": "hotel"
    }
  },
  {
    "missing_official": 8310,
    "missing_osm": 7210,
    "class": "55.30Z",
    "level": 3,
    "title": "Terrains de camping et parcs pour caravanes ou véhicules de loisirs",
    "match": [
      {
        "tourism": "camp_site"
      }
    ],
    "generate": {
      "tourism": "camp_site"
    }
  },
  {
    "missing_official": 8310,
    "missing_osm": 7210,
    "class": "56.10A",
    "level": 3,
    "title": "Restauration traditionnelle",
    "match": [
      {
        "amenity": "restaurant"
      },
      {
        "amenity": "fast_food"
      },
      {
        "amenity": "bar"
      },
      {
        "amenity": "pub"
      },
      {
        "amenity": "cafe"
      }
    ],
    "generate": {
      "amenity": "restaurant"
    }
  },
  {
    "missing_official": 8310,
    "missing_osm": 7210,
    "class": "56.10C",
    "level": 3,
    "title": "Restauration de type rapide",
    "trancheEffectifs": 1,
    "match": [
      {
        "amenity": "restaurant"
      },
      {
        "amenity": "fast_food"
      }
    ],
    "generate": {
      "amenity": "fast_food"
    }
  },
  {
    "missing_official": 8310,
    "missing_osm": 7210,
    "class": "56.30Z",
    "level": 3,
    "title": "Débits de boissons",
    "match": [
      {
        "amenity": "bar"
      },
      {
        "amenity": "cafe"
      },
      {
        "amenity": "pub"
      }
    ],
    "generate": {
      "amenity": "bar;cafe;pub",
      "fixme": "select an amenity type"
    }
  },
  {
    "missing_official": 8310,
    "missing_osm": 7210,
    "class": "59.14Z",
    "level": 3,
    "title": "Projection de films cinématographiques",
    "match": [
      {
        "amenity": "cinema"
      }
    ],
    "generate": {
      "amenity": "cinema"
    }
  },
  {
    "missing_official": 8310,
    "missing_osm": 7210,
    "class": "68.31Z",
    "level": 3,
    "title": "Agences immobilières",
    "trancheEffectifs": 1,
    "match": [
      {
        "office": "estate_agent"
      }
    ],
    "generate": {
      "office": "estate_agent"
    }
  },
  {
    "missing_official": 8310,
    "missing_osm": 7210,
    "class": "71.11Z",
    "level": 3,
    "title": "Activités d'architecture",
    "trancheEffectifs": 1,
    "match": [
      {
        "office": "architect"
      }
    ],
    "generate": {
      "office": "architect"
    }
  },
  {
    "missing_official": 8310,
    "missing_osm": 7210,
    "class": "71.12A",
    "level": 3,
    "title": "Activité des géomètres",
    "match": [
      {
        "office": "surveyor"
      },
      {
        "office": "geodesist"
      }
    ],
    "generate": {
      "office": "geodesist"
    }
  },
  {
    "missing_official": 8310,
    "missing_osm": 7210,
    "class": "75.00Z",
    "level": 3,
    "title": "Activités vétérinaires",
    "match": [
      {
        "amenity": "veterinary"
      }
    ],
    "generate": {
      "amenity": "veterinary"
    }
  },
  {
    "missing_official": 8310,
    "missing_osm": 7210,
    "class": "77.22Z",
    "level": 3,
    "title": "Location de vidéocassettes et disques vidéo",
    "match": [
      {
        "shop": "video"
      }
    ],
    "generate": {
      "shop": "video"
    }
  },
  {
    "missing_official": 8310,
    "missing_osm": 7210,
    "class": "78.10Z",
    "level": 3,
    "title": "Activités des agences de placement de main-d'œuvre",
    "match": [
      {
        "office": "employment_agency"
      }
    ],
    "generate": {
      "office": "employment_agency"
    }
  },
  {
    "missing_official": 8310,
    "missing_osm": 7210,
    "class": "79.11Z",
    "level": 3,
    "title": "Activités des agences de voyage",
    "match": [
      {
        "shop": "travel_agency"
      },
      {
        "office": "travel_agent"
      }
    ],
    "generate": {
      "shop": "travel_agency"
    }
  },
  {
    "missing_official": 8310,
    "missing_osm": 7210,
    "class": "79.12Z",
    "level": 3,
    "title": "Activités des voyagistes",
    "match": [
      {
        "shop": "travel_agency"
      },
      {
        "office": "travel_agent"
      }
    ],
    "generate": {
      "shop": "travel_agency"
    }
  },
  {
    "missing_official": 8310,
    "missing_osm": 7210,
    "class": "86.23Z",
    "level": 3,
    "title": "Pratique dentaire",
    "match": [
      {
        "amenity": "dentist"
      }
    ],
    "generate": {
      "amenity": "dentist"
    }
  },
  {
    "missing_official": 8310,
    "missing_osm": 7210,
    "class": "87.30A",
    "level": 3,
    "title": "Hébergement social pour personnes âgées",
    "match": [
      {
        "amenity": "social_facility",
        "social_facility": "group_home",
        "social_facility:for": "senior"
      }
    ],
    "generate": {
      "amenity": "social_facility",
      "social_facility": "group_home",
      "social_facility:for": "senior"
    }
  },
  {
    "missing_official": 8310,
    "missing_osm": 7210,
    "class": "87.30B",
    "level": 3,
    "title": "Hébergement social pour handicapés physiques",
    "match": [
      {
        "amenity": "social_facility",
        "social_facility": "group_home",
        "social_facility:for": "disabled"
      }
    ],
    "generate": {
      "amenity": "social_facility",
      "social_facility": "group_home",
      "social_facility:for": "disabled"
    }
  },
  {
    "missing_official": 8310,
    "missing_osm": 7210,
    "class": "87.90A",
    "level": 3,
    "title": "Hébergement social pour enfants en difficultés",
    "match": [
      {
        "amenity": "social_facility",
        "social_facility": "group_home",
        "social_facility:for": "child"
      }
    ],
    "generate": {
      "amenity": "social_facility",
      "social_facility": "group_home",
      "social_facility:for": "child"
    }
  },
  {
    "missing_official": 8310,
    "missing_osm": 7210,
    "class": "87.90B",
    "level": 3,
    "title": "Hébergement social pour adultes et familles en difficultés et autre hébergement social",
    "match": [
      {
        "amenity": "social_facility",
        "social_facility": "group_home",
        "social_facility:for": "underprivileged"
      }
    ],
    "generate": {
      "amenity": "social_facility",
      "social_facility": "group_home",
      "social_facility:for": "underprivileged"
    }
  },
  {
    "missing_official": 8310,
    "missing_osm": 7210,
    "class": "96.01B",
    "level": 3,
    "title": "Blanchisserie-teinturerie de détail",
    "trancheEffectifs": 1,
    "match": [
      {
        "shop": "laundry"
      }
    ],
    "generate": {
      "shop": "laundry"
    }
  },
  {
    "missing_official": 8310,
    "missing_osm": 7210,
    "class": "96.02A",
    "level": 3,
    "title": "Coiffure",
    "trancheEffectifs": 1,
    "match": [
      {
        "shop": "hairdresser"
      }
    ],
    "generate": {
      "shop": "hairdresser"
    }
  },
  {
    "missing_official": 8310,
    "missing_osm": 7210,
    "class": "96.02B",
    "level": 3,
    "title": "Soins de beauté",
    "trancheEffectifs": 1,
    "match": [
      {
        "shop": "beauty"
      }
    ],
    "generate": {
      "shop": "beauty"
    }
  },
  {
    "missing_official": 8310,
    "missing_osm": 7210,
    "class": "96.03Z",
    "level": 3,
    "title": "Services funéraires",
    "match": [
      {
        "shop": "funeral_directors"
      }
    ],
    "generate": {
      "shop": "funeral_directors"
    }
  },
  {
    "missing_official": 8310,
    "missing_osm": 7210,
    "class": "96.04Z",
    "level": 3,
    "title": "Entretien corporel",
    "match": [
      {
        "shop": "beauty"
      },
      {
        "amenity": "swingerclub"
      },
      {
        "shop": "massage"
      }
    ],
    "generate": {
      "shop": "beauty;massage",
      "fixme": "Select an amenity type. Use amenity=swingerclub for swinger clubs (club libertin)"
    }
  }
]
